1 34024U 93036HK  20006.89271079  .00000029  00000-0  20161-4 0  9990
2 34024  74.0481 316.8262 0022578 187.6496 232.6428 14.33021411569694
1 34026U 93036HM  20007.31867822  .00000077  00000-0  85791-4 0  9990
2 34026  73.7680 318.2587 0362481 157.3438 355.7617 13.60083155540585
1 34028U 93036HP  20007.15591491  .00000145  00000-0  19007-3 0  9992
2 34028  73.8843  61.8530 0553051 201.4828 189.0217 13.18649881524546
1 34029U 93036HQ  20007.51333625  .00001232  00000-0  11649-3 0  9998
2 34029  73.9459  90.8309 0074034  97.8359 263.1237 14.92929474587831
1 34030U 93036HR  20006.93127228  .00003536  00000-0  93208-4 0  9996
2 34030  73.9521  77.8955 0078652  36.3648 136.4952 15.35828265599398
1 34031U 93036HS  20006.73019064  .00000374  00000-0  11989-3 0  9995
2 34031  74.0185 232.4408 0031791 155.2061 271.5206 14.42562716572131
1 34032U 93036HT  20006.76709868  .00001008  00000-0  28387-3 0  9992
2 34032  74.0336 255.0090 0053005 139.0357 282.0563 14.46309068571728
1 34033U 93036HU  20006.82506446  .00001338  00000-0  39890-3 0  9994
2 34033  74.0061 282.9559 0061816  95.3845 320.3621 14.42926309570288
1 34035U 93036HW  20006.72192336  .00000367  00000-0  14065-3 0  9992
2 34035  74.0728  14.3485 0062314 214.4720 269.5200 14.32976791568109
1 34036U 93036HX  20006.75550774  .00000301  00000-0  97958-4 0  9991
2 34036  74.0457 282.2746 0047212 155.0372 205.3083 14.42228590570825
1 34037U 93036HY  20007.47595397  .00000180  00000-0  80823-4 0  9990
2 34037  74.0534  26.8904 0062244 250.6015 108.8399 14.28395621567601
1 34038U 93036HZ  20006.90395621  .00001085  00000-0  26763-3 0  9993
2 34038  74.0628 211.7277 0031805  55.2856 305.1294 14.53069087573329
1 34040U 93036JB  20006.74720292  .00000734  00000-0  64483-3 0  9995
2 34040  73.9605  19.7581 0354806  41.9536  68.5090 13.61822270540850
1 34042U 93036JD  20006.72517586  .00004524  00000-0  19209-3 0  9992
2 34042  73.8836 231.5232 0048807 321.1198  38.6492 15.22332600593328
1 34045U 93036JG  20006.88724685 -.00000005  00000-0  78593-5 0  9996
2 34045  74.0403 310.2813 0027593 205.9073 208.8608 14.32877050569892
1 34046U 93036JH  20006.76964737  .00000200  00000-0  82086-4 0  9995
2 34046  74.0427  22.2732 0105133 275.3630 259.7249 14.30506341567407
1 34050U 93036JM  20007.52469086  .00000125  00000-0  96119-4 0  9990
2 34050  74.0919 104.3570 0229325 329.3192  40.9487 13.91078235552953
1 34051U 93036JN  20006.80348698  .00000744  00000-0  11687-3 0  9999
2 34051  73.9881 282.0462 0056219 284.8949  74.6002 14.73617596581936
1 34053U 93036JQ  20007.38158669  .00000146  00000-0  16165-3 0  9994
2 34053  73.8456 122.6245 0431794 271.7342  83.4366 13.46467373535395
1 34054U 93036JR  20006.76903484  .00000672  00000-0  15485-3 0  9997
2 34054  74.0373 115.2521 0031169  37.3910 124.3079 14.57037413576348
1 34055U 93036JS  20006.76049937  .00001011  00000-0  20021-3 0  9992
2 34055  74.1106 137.5610 0086646 316.0304 171.0281 14.61350649576656
1 34056U 93036JT  20006.85578442  .00000811  00000-0  44356-3 0  9995
2 34056  74.0679 294.1320 0150537 147.0290 269.8054 14.07824558558509
1 34057U 93036JU  20006.86853358  .00000391  00000-0  97248-4 0  9991
2 34057  74.0192 149.6954 0028704  67.9469  53.6786 14.54895401575007
1 34058U 93036JV  20006.89341525 -.00000132  00000-0 -10590-3 0  9992
2 34058  73.9357  80.4360 0382028 125.8753 356.6087 13.53596160538056
1 34059U 93036JW  20006.84538442  .00000272  00000-0  93463-4 0  9998
2 34059  74.0439 255.6272 0022939 150.3707 290.4677 14.40551719571787
1 34061U 93036JY  20007.16812762  .00000059  00000-0  29472-4 0  9999
2 34061  74.0421 287.4961 0022366 182.8775 289.7232 14.35847269570697
1 34062U 93036JZ  20006.79903684  .00000451  00000-0  12735-3 0  9991
2 34062  74.0413 260.8596 0140840 162.9482 260.3612 14.42966129571457
1 34064U 93036KB  20006.90329479  .00000170  00000-0  68019-4 0  9995
2 34064  74.0357 298.9713 0025515 180.9778 241.8314 14.35423838570064
1 34065U 93036KC  20007.19294764  .00000061  00000-0  30029-4 0  9995
2 34065  74.0373 278.4938 0017464 192.5754 318.3399 14.35784137570955
1 34066U 93036KD  20006.67709156  .00001706  00000-0  34280-3 0  9993
2 34066  73.9988 340.2781 0259292 291.3005 244.4589 14.43409802567592
1 34069U 93036KG  20006.66966725  .00001263  00000-0  21510-3 0  9992
2 34069  74.0153 357.1637 0040778 315.3731  44.4159 14.69662688579852
1 34070U 93036KH  20006.91353294  .00000621  00000-0  19062-3 0  9999
2 34070  74.0126 243.2709 0039952 156.6262 215.2636 14.43276480571679
1 34114U 93036KK  20006.84655270  .00000540  00000-0  21281-3 0  9995
2 34114  74.0689  61.9071 0077107 250.5459 233.5603 14.29889260566777
1 34115U 93036KL  20007.18233796  .00000383  00000-0  92704-4 0  9993
2 34115  74.0174  75.9495 0042001  76.2743 284.3090 14.55957065577646
1 34116U 93036KM  20006.76919439  .00000216  00000-0  75628-4 0  9993
2 34116  74.0460 252.9713 0015621 148.5713 271.3161 14.40866796572007
1 34117U 93036KN  20007.03969557  .00000097  00000-0  44917-4 0  9995
2 34117  74.0427 349.0984 0067537 237.2843 122.1785 14.31757627570872
1 34118U 93036KP  20006.72244748  .00000542  00000-0  12427-3 0  9994
2 34118  73.9685 105.4029 0121113  83.4541  72.3209 14.53679176574808
1 34119U 93036KQ  20006.70683491  .00000861  00000-0  23119-3 0  9999
2 34119  74.0445 244.7311 0031492  85.4167 329.8597 14.49358800571431
1 34120U 93036KR  20007.13483994  .00000072  00000-0  61070-4 0  9998
2 34120  73.9940 359.0033 0188846 298.3825 141.8449 13.96321396557381
1 34121U 93036KS  20007.16919278  .00000360  00000-0  26843-3 0  9999
2 34121  73.9967 172.2430 0260948 121.5501 353.3345 13.83094290551306
1 34122U 93036KT  20006.65104824  .00000451  00000-0  12908-3 0  9994
2 34122  74.0431 227.3146 0114794 309.7334 103.6676 14.44307584572758
1 34123U 93036KU  20006.89570399  .00001250  00000-0  30750-3 0  9998
2 34123  74.0266 186.0455 0016955  51.4921  70.1215 14.53271040574051
1 34124U 93036KV  20006.81493186  .00001523  00000-0  33833-3 0  9997
2 34124  74.0260 155.6118 0020173  30.9212 329.3135 14.57815460574915
1 34126U 93036KX  20006.60846838  .00000665  00000-0  11351-3 0  9999
2 34126  74.0042 310.7191 0060594 315.1663 218.7560 14.69983695581144
1 34127U 93036KY  20006.86290289  .00000998  00000-0  48923-3 0  9995
2 34127  74.1930 280.0878 0139810 356.5948  65.7643 14.14088206560633
1 34128U 93036KZ  20006.76731056  .00000381  00000-0  98052-4 0  9992
2 34128  74.0151 138.8789 0070436  73.2650  42.5167 14.52195468575079
1 34129U 93036LA  20006.76754064  .00000501  00000-0  12861-3 0  9994
2 34129  74.0465 142.3959 0048975  57.4714 303.1165 14.52183452575350
1 34130U 93036LB  20006.83806539  .00000909  00000-0  17998-3 0  9997
2 34130  74.0308  65.7511 0024758   4.3428 355.7949 14.63664085578068
1 34131U 93036LC  20006.86734667  .00001451  00000-0  29233-3 0  9991
2 34131  74.1204 162.5140 0008387 297.8547 212.6523 14.62430335575941
1 34136U 93036LH  20006.88501664  .00000065  00000-0  16734-4 0  9990
2 34136  74.0243 291.5646 0110499 244.2017 177.7116 14.66791242581596
1 34139U 93036LL  20007.27454876  .00000394  00000-0  13892-3 0  9995
2 34139  74.0383 316.9016 0064305 204.7792 306.9882 14.36887711569149
1 34141U 93036LN  20007.14827515  .00000440  00000-0  17905-3 0  9999
2 34141  74.0180  42.4655 0076883 281.5169 132.8472 14.28846796566251
1 34142U 93036LP  20006.34653174  .00000909  00000-0  15966-3 0  9994
2 34142  73.9944 336.2310 0049209 327.4533 151.4601 14.68511701579868
1 34270U 93036LQ  20006.68331630  .00000337  00000-0  87793-4 0  9996
2 34270  74.0167 102.0169 0059772  65.1249 295.6110 14.52424408575521
1 34271U 93036LR  20007.07534610  .00000545  00000-0  18134-3 0  9997
2 34271  74.0345 293.4375 0039940 166.4156 205.9206 14.39549773568903
1 34273U 93036LT  20007.52505851  .00000330  00000-0  10010-3 0  9991
2 34273  74.0398 195.7970 0019566 134.0446 257.4214 14.45934005572362
1 34274U 93036LU  20007.52965387  .00000423  00000-0  12586-3 0  9999
2 34274  74.0099 190.0385 0030760 136.8393 286.7067 14.45881680572652
1 34275U 93036LV  20006.84552347  .00000792  00000-0  21587-3 0  9992
2 34275  74.0335 211.1882 0011226  96.6690 275.3347 14.49022303571828
1 34276U 93036LW  20007.51639194  .00000298  00000-0  91990-4 0  9991
2 34276  74.0266 187.2648 0027080 142.0998 284.6771 14.45342245572402
1 34277U 93036LX  20007.51368249  .00004055  00000-0  35624-3 0  9998
2 34277  73.6924  68.7587 0024706  79.0035 281.3925 14.96729918584553
1 34292U 93036MN  20006.82667571  .00000813  00000-0  11463-3 0  9991
2 34292  74.0604 277.2177 0068052 180.1449 179.9720 14.77531835582154
1 34293U 93036MP  20007.46116006  .00002145  00000-0  17896-3 0  9991
2 34293  73.9687 127.2531 0070168 207.7430 223.4944 14.97428702585818
1 34295U 93036MR  20006.50140935  .00000970  00000-0  17570-3 0  9998
2 34295  74.0176  31.7230 0077085  93.8623  55.5479 14.65857515578040
1 34297U 93036MT  20006.88347747  .00000002  00000-0  10031-4 0  9993
2 34297  74.0501 294.8164 0018066 186.7147 239.8295 14.34779258569753
1 34298U 93036MU  20006.92216601  .00001350  00000-0  30283-3 0  9990
2 34298  74.0516 173.5560 0038336  37.8588 322.5260 14.57141441574211
1 34299U 93036MV  20006.87603976  .00000705  00000-0  13810-3 0  9990
2 34299  74.0239 209.8769 0224591 123.2513 239.0392 14.49874698572197
1 34300U 93036MW  20006.90611402  .00000842  00000-0  20882-3 0  9999
2 34300  74.0213 236.8699 0144804 154.8276 206.0035 14.47362581571444
1 34301U 93036MX  20007.47755021  .00000625  00000-0  20262-3 0  9990
2 34301  74.0237 286.5067 0038999 156.6013 320.2599 14.40552959570062
1 34302U 93036MY  20006.91685365  .00000288  00000-0  11775-3 0  9996
2 34302  74.1856  82.7099 0088358 188.7739 288.7760 14.29363118566974
1 34303U 93036MZ  20006.90304182  .00000274  00000-0  89913-4 0  9996
2 34303  74.0144 338.0042 0187224 273.5647 114.4235 14.33986311567808
1 34304U 93036NA  20006.71043071  .00000382  00000-0  15855-3 0  9996
2 34304  74.0190  93.2403 0156161  20.0823  99.7476 14.23411981563711
